{
 "type": "FeatureCollection",
 "features": [
  {
   "type": "Feature",
   "properties": {
    "name": "MV",
    "projekt": "BEW",
    "standort": "MV",
    "geom_type": "point"
   },
   "geometry": {
    "type": "Point",
    "coordinates": [
     13.33891184746856,
     52.60168829488872
    ]
   }
  },
  {
   "type": "Feature",
   "properties": {
    "name": "MV - Stehendes Totholz 2",
    "projekt": "BEW",
    "standort": "MV",
    "geom_type": "point"
   },
   "geometry": {
    "type": "Point",
    "coordinates": [
     13.338933033715,
     52.60167146630462
    ]
   }
  },
  {
   "type": "Feature",
   "properties": {
    "name": "MV - Stehendes Totholz 3",
    "projekt": "BEW",
    "standort": "MV",
    "geom_type": "point"
   },
   "geometry": {
    "type": "Point",
    "coordinates": [
     13.33895464289902,
     52.6016562257325
    ]
   }
  },
  {
   "type": "Feature",
   "properties": {
    "name": "MV - 1st Bentjeshecke 7m",
    "projekt": "BEW",
    "standort": "MV",
    "geom_type": "path"
   },
   "geometry": {
    "type": "LineString",
    "coordinates": [
     [
      13.33917589171191,
      52.60145557129317
     ],
     [
      13.33915742113253,
      52.60146640950195
     ],
     [
      13.33909200723653,
      52.60149159253847
     ]
    ]
   }
  },
  {
   "type": "Feature",
   "properties": {
    "name": "MV - 1st Bentjeshecke 6,6m",
    "projekt": "BEW",
    "standort": "MV",
    "geom_type": "path"
   },
   "geometry": {
    "type": "LineString",
    "coordinates": [
     [
      13.33910163715525,
      52.60143923302188
     ],
     [
      13.33904397479998,
      52.60145880723687
     ],
     [
      13.33902885911226,
      52.6014548906761
     ],
     [
      13.33902608183073,
      52.601445365476
     ]
    ]
   }
  },
  {
   "type": "Feature",
   "properties": {
    "name": "MV - M\u00e4rkisches Viertel, Tiny Forest",
    "projekt": "BEW",
    "standort": "MV",
    "geom_type": "area"
   },
   "geometry": {
    "type": "Polygon",
    "coordinates": [
     [
      [
       13.33883407482989,
       52.60134610141704
      ],
      [
       13.33896170400148,
       52.60134787191344
      ],
      [
       13.33923586787932,
       52.60146028048819
      ],
      [
       13.33915605182382,
       52.60152190854723
      ],
      [
       13.33889186903214,
       52.60178744909788
      ],
      [
       13.33843772518281,
       52.60154835233142
      ],
      [
       13.33883407482989,
       52.60134610141704
      ]
     ]
    ]
   }
  },
  {
   "type": "Feature",
   "properties": {
    "name": "MV - Tiny Forest",
    "projekt": "BEW",
    "standort": "MV",
    "geom_type": "area"
   },
   "geometry": {
    "type": "Polygon",
    "coordinates": [
     [
      [
       13.33874063475342,
       52.60158215008084
      ],
      [
       13.33871890977254,
       52.60155008372755
      ],
      [
       13.33870304831286,
       52.60151537171071
      ],
      [
       13.33878255579923,
       52.60145861675278
      ],
      [
       13.33886205985519,
       52.6014302148583
      ],
      [
       13.33890513956657,
       52.60144300793117
      ],
      [
       13.33896858349028,
       52.60146921287616
      ],
      [
       13.33897694196489,
       52.60151468514333
      ],
      [
       13.33894419558597,
       52.60155252564068
      ],
      [
       13.33881123118614,
       52.60159422253331
      ],
      [
       13.33874063475342,
       52.60158215008084
      ]
     ]
    ]
   }
  },
  {
   "type": "Feature",
   "properties": {
    "name": "MV - B\u00e4nke",
    "projekt": "BEW",
    "standort": "MV",
    "geom_type": "path"
   },
   "geometry": {
    "type": "LineString",
    "coordinates": [
     [
      13.33897301332658,
      52.60153483500785
     ],
     [
      13.33899624519011,
      52.60150939843196
     ],
     [
      13.33899531018302,
      52.60148323716241
     ],
     [
      13.33897877156485,
      52.60145516065964
     ],
     [
      13.33893771362694,
      52.60144024802596
     ]
    ]
   }
  },
  {
   "type": "Feature",
   "properties": {
    "name": "MV - B\u00e4ume pflanzen",
    "projekt": "BEW",
    "standort": "MV",
    "geom_type": "area"
   },
   "geometry": {
    "type": "Polygon",
    "coordinates": [
     [
      [
       13.33887944296626,
       52.60168324638165
      ],
      [
       13.33893197569121,
       52.6016425138965
      ],
      [
       13.33897145792044,
       52.60164002404434
      ],
      [
       13.33889484792613,
       52.60169929435705
      ],
      [
       13.33887944296626,
       52.60168324638165
      ]
     ]
    ]
   }
  },
  {
   "type": "Feature",
   "properties": {
    "name": "MV - 2nd Bentjeshecke (Falls mehr Material da ist)",
    "projekt": "BEW",
    "standort": "MV",
    "geom_type": "path"
   },
   "geometry": {
    "type": "LineString",
    "coordinates": [
     [
      13.33878169540915,
      52.60171788566583
     ],
     [
      13.33846261555495,
      52.60155059276663
     ]
    ]
   }
  },
  {
   "type": "Feature",
   "properties": {
    "name": "MV - Bioreaktor",
    "projekt": "BEW",
    "standort": "MV",
    "geom_type": "point"
   },
   "geometry": {
    "type": "Point",
    "coordinates": [
     13.33884672237538,
     52.60159441884392
    ]
   }
  },
  {
   "type": "Feature",
   "properties": {
    "name": "MV - 2nd Benjteshecke",
    "projekt": "BEW",
    "standort": "MV",
    "geom_type": "path"
   },
   "geometry": {
    "type": "LineString",
    "coordinates": [
     [
      13.33881285170767,
      52.60173731539528
     ],
     [
      13.33884654259198,
      52.60175100407002
     ],
     [
      13.3388642992306,
      52.60175005612142
     ],
     [
      13.33887881189291,
      52.60173684389535
     ],
     [
      13.3388931142316,
      52.60171397385452
     ]
    ]
   }
  },
  {
   "type": "Feature",
   "properties": {
    "name": "MV - Weidenpalast",
    "projekt": "BEW",
    "standort": "MV",
    "geom_type": "area"
   },
   "geometry": {
    "type": "Polygon",
    "coordinates": [
     [
      [
       13.33874827883271,
       52.60162672336114
      ],
      [
       13.3387605161034,
       52.60159243071492
      ],
      [
       13.3388025813327,
       52.60159413301691
      ],
      [
       13.33882874067999,
       52.60160095610002
      ],
      [
       13.33883499928047,
       52.60162983091245
      ],
      [
       13.3388042761405,
       52.60164823554931
      ],
      [
       13.33874827883271,
       52.60162672336114
      ]
     ]
    ]
   }
  },
  {
   "type": "Feature",
   "properties": {
    "name": "MV - Einfahrt",
    "projekt": "BEW",
    "standort": "MV",
    "geom_type": "point"
   },
   "geometry": {
    "type": "Point",
    "coordinates": [
     13.33915893269628,
     52.60143101735852
    ]
   }
  },
  {
   "type": "Feature",
   "properties": {
    "name": "Standort M\u00e4rkisches Viertel",
    "projekt": "BEW",
    "standort": "MV",
    "geom_type": "point"
   },
   "geometry": {
    "type": "Point",
    "coordinates": [
     13.33904452746317,
     52.60149677927286
    ]
   }
  },
  {
   "type": "Feature",
   "properties": {
    "name": "Einfahrt Holztransport",
    "projekt": "BEW",
    "standort": "MV",
    "geom_type": "path"
   },
   "geometry": {
    "type": "LineString",
    "coordinates": [
     [
      13.33920461061926,
      52.60139809865364
     ],
     [
      13.33908061537613,
      52.6014776643711
     ],
     [
      13.33902009063156,
      52.60156375583242
     ],
     [
      13.33885139359601,
      52.60165986633729
     ]
    ]
   }
  },
  {
   "type": "Feature",
   "properties": {
    "name": "BL",
    "projekt": "BEW",
    "standort": "BL",
    "geom_type": "point"
   },
   "geometry": {
    "type": "Point",
    "coordinates": [
     13.42557824329914,
     52.58794222357035
    ]
   }
  },
  {
   "type": "Feature",
   "properties": {
    "name": "BL - Gesamtfl\u00e4che",
    "projekt": "BEW",
    "standort": "BL",
    "geom_type": "area"
   },
   "geometry": {
    "type": "Polygon",
    "coordinates": [
     [
      [
       13.42520087749752,
       52.58649090039052
      ],
      [
       13.42543784113439,
       52.58661021302731
      ],
      [
       13.4249719352241,
       52.5872029525795
      ],
      [
       13.42508221630678,
       52.58726524285955
      ],
      [
       13.42597640392553,
       52.58752085261241
      ],
      [
       13.4262594329833,
       52.58759423990925
      ],
      [
       13.42654605170836,
       52.58768303752178
      ],
      [
       13.42588274130693,
       52.58823439951826
      ],
      [
       13.42566323097594,
       52.58842880796561
      ],
      [
       13.42530089028397,
       52.58828867195246
      ],
      [
       13.42425734021391,
       52.58771846480521
      ],
      [
       13.42520087749752,
       52.58649090039052
      ]
     ]
    ]
   }
  },
  {
   "type": "Feature",
   "properties": {
    "name": "BL - Bienenweide 1",
    "projekt": "BEW",
    "standort": "BL",
    "geom_type": "area"
   },
   "geometry": {
    "type": "Polygon",
    "coordinates": [
     [
      [
       13.42524325584884,
       52.58789683964582
      ],
      [
       13.42546526290328,
       52.58795679863405
      ],
      [
       13.42534493931121,
       52.58811319444371
      ],
      [
       13.4251274964284,
       52.58804787135736
      ],
      [
       13.42524325584884,
       52.58789683964582
      ]
     ]
    ]
   }
  },
  {
   "type": "Feature",
   "properties": {
    "name": "BL - Bienenweide 2",
    "projekt": "BEW",
    "standort": "BL",
    "geom_type": "area"
   },
   "geometry": {
    "type": "Polygon",
    "coordinates": [
     [
      [
       13.42531159625374,
       52.58780625427597
      ],
      [
       13.42534663251753,
       52.58781639116779
      ],
      [
       13.42535371909735,
       52.58780659487513
      ],
      [
       13.4255467388929,
       52.58785694738241
      ],
      [
       13.42551874144286,
       52.58789423685904
      ],
      [
       13.42528997130363,
       52.58783339166593
      ],
      [
       13.42531159625374,
       52.58780625427597
      ]
     ]
    ]
   }
  },
  {
   "type": "Feature",
   "properties": {
    "name": "BL - Bienenweide 3",
    "projekt": "BEW",
    "standort": "BL",
    "geom_type": "area"
   },
   "geometry": {
    "type": "Polygon",
    "coordinates": [
     [
      [
       13.42571208969197,
       52.58803128722452
      ],
      [
       13.42571101684802,
       52.58802180513914
      ],
      [
       13.42568092059031,
       52.58801460999234
      ],
      [
       13.4256873489692,
       52.58800284280095
      ],
      [
       13.42571257929119,
       52.58800774758347
      ],
      [
       13.4257734151003,
       52.58802279496344
      ],
      [
       13.42582079619231,
       52.58803718272899
      ],
      [
       13.42585310129115,
       52.58805321646386
      ],
      [
       13.42587517679196,
       52.58808298376415
      ],
      [
       13.42587786792781,
       52.58810359044669
      ],
      [
       13.4258137984138,
       52.58818630946666
      ],
      [
       13.42578959553624,
       52.58821070464809
      ],
      [
       13.42575025959001,
       52.58822267042136
      ],
      [
       13.42571576351138,
       52.5882243794553
      ],
      [
       13.42564541528819,
       52.58820646705342
      ],
      [
       13.42559528372132,
       52.58818955200772
      ],
      [
       13.42555437930746,
       52.58816797078368
      ],
      [
       13.42554473225782,
       52.58815552321459
      ],
      [
       13.42556773739789,
       52.58815854672067
      ],
      [
       13.42560356643971,
       52.58810803396157
      ],
      [
       13.42564452777793,
       52.58811973246934
      ],
      [
       13.42564593697799,
       52.5881290167933
      ],
      [
       13.42567623743833,
       52.5881536853007
      ],
      [
       13.425719833608,
       52.58816174465432
      ],
      [
       13.42577564963005,
       52.58816872590497
      ],
      [
       13.42580357068889,
       52.58815818476626
      ],
      [
       13.42582079622617,
       52.58813396450393
      ],
      [
       13.425817562919,
       52.58810038684435
      ],
      [
       13.42579442126989,
       52.58807315108802
      ],
      [
       13.42574011197934,
       52.58806362788982
      ],
      [
       13.42570293073967,
       52.58805908254001
      ],
      [
       13.42571208969197,
       52.58803128722452
      ]
     ]
    ]
   }
  },
  {
   "type": "Feature",
   "properties": {
    "name": "BL - Bienenweide 4",
    "projekt": "BEW",
    "standort": "BL",
    "geom_type": "area"
   },
   "geometry": {
    "type": "Polygon",
    "coordinates": [
     [
      [
       13.42548374009324,
       52.58823505008557
      ],
      [
       13.42548973776232,
       52.58822488603844
      ],
      [
       13.42554665465217,
       52.58823442931073
      ],
      [
       13.42563341354905,
       52.58825370167498
      ],
      [
       13.42569636808428,
       52.58826781741973
      ],
      [
       13.42575131605695,
       52.58826878326206
      ],
      [
       13.42578847465053,
       52.58826061211293
      ],
      [
       13.42582994703582,
       52.58825047379992
      ],
      [
       13.42584178643768,
       52.58825723444704
      ],
      [
       13.4257649208487,
       52.58832101707114
      ],
      [
       13.42566966986414,
       52.58829014529044
      ],
      [
       13.4255295062049,
       52.58824257377434
      ],
      [
       13.42548374009324,
       52.58823505008557
      ]
     ]
    ]
   }
  },
  {
   "type": "Feature",
   "properties": {
    "name": "BL - Hochbeet Perenials",
    "projekt": "BEW",
    "standort": "BL",
    "geom_type": "area"
   },
   "geometry": {
    "type": "Polygon",
    "coordinates": [
     [
      [
       13.42649429103833,
       52.58768991463413
      ],
      [
       13.42630204128467,
       52.58762895686505
      ],
      [
       13.42632178317601,
       52.58760994358108
      ],
      [
       13.42654227340624,
       52.58768223062948
      ],
      [
       13.42650358120011,
       52.58771788362942
      ],
      [
       13.42644555802398,
       52.58776933252465
      ],
      [
       13.42641669025225,
       52.58775891699883
      ],
      [
       13.42649429103833,
       52.58768991463413
      ]
     ]
    ]
   }
  },
  {
   "type": "Feature",
   "properties": {
    "name": "BL - Containerbegr\u00fcnung",
    "projekt": "BEW",
    "standort": "BL",
    "geom_type": "area"
   },
   "geometry": {
    "type": "Polygon",
    "coordinates": [
     [
      [
       13.42529015213712,
       52.58783564077245
      ],
      [
       13.42551791059481,
       52.5878952011411
      ],
      [
       13.42546666494095,
       52.58795608128925
      ],
      [
       13.42524460426904,
       52.58789574595517
      ],
      [
       13.42529015213712,
       52.58783564077245
      ]
     ]
    ]
   }
  },
  {
   "type": "Feature",
   "properties": {
    "name": "BL - Bew\u00e4sserungsIBC 1",
    "projekt": "BEW",
    "standort": "BL",
    "geom_type": "area"
   },
   "geometry": {
    "type": "Polygon",
    "coordinates": [
     [
      [
       13.4254350816133,
       52.5879483588265
      ],
      [
       13.42544551190471,
       52.58793497733792
      ],
      [
       13.42544859327712,
       52.58793124612517
      ],
      [
       13.42548024099669,
       52.58793995904252
      ],
      [
       13.42546555456006,
       52.58795636099951
      ],
      [
       13.4254350816133,
       52.5879483588265
      ]
     ]
    ]
   }
  },
  {
   "type": "Feature",
   "properties": {
    "name": "BL - Bew\u00e4sserungsIBC 2",
    "projekt": "BEW",
    "standort": "BL",
    "geom_type": "area"
   },
   "geometry": {
    "type": "Polygon",
    "coordinates": [
     [
      [
       13.42548200782891,
       52.58788498651908
      ],
      [
       13.42551702505265,
       52.58789546305918
      ],
      [
       13.42550000373823,
       52.5879144907844
      ],
      [
       13.42546518210478,
       52.5879055034255
      ],
      [
       13.42548200782891,
       52.58788498651908
      ]
     ]
    ]
   }
  },
  {
   "type": "Feature",
   "properties": {
    "name": "BL - Einfahrt",
    "projekt": "BEW",
    "standort": "BL",
    "geom_type": "point"
   },
   "geometry": {
    "type": "Point",
    "coordinates": [
     13.4253937455993,
     52.58658917101044
    ]
   }
  },
  {
   "type": "Feature",
   "properties": {
    "name": "BL - Bew\u00e4sserungs IBC 3",
    "projekt": "BEW",
    "standort": "BL",
    "geom_type": "area"
   },
   "geometry": {
    "type": "Polygon",
    "coordinates": [
     [
      [
       13.42646161154212,
       52.58768069297502
      ],
      [
       13.42649282480093,
       52.58769090370056
      ],
      [
       13.42647564784094,
       52.58770538581613
      ],
      [
       13.42644948377111,
       52.58769600533989
      ],
      [
       13.42646161154212,
       52.58768069297502
      ]
     ]
    ]
   }
  },
  {
   "type": "Feature",
   "properties": {
    "name": "Bienenweide 1",
    "projekt": "BEW",
    "standort": "BL",
    "geom_type": "area"
   },
   "geometry": {
    "type": "Polygon",
    "coordinates": [
     [
      [
       13.42525917824161,
       52.58787814666039
      ],
      [
       13.42548177100423,
       52.58793944158954
      ],
      [
       13.42534633643273,
       52.58811371280274
      ],
      [
       13.42513055957465,
       52.58804915062642
      ],
      [
       13.42525917824161,
       52.58787814666039
      ]
     ]
    ]
   }
  },
  {
   "type": "Feature",
   "properties": {
    "name": "Bienenweide 2",
    "projekt": "BEW",
    "standort": "BL",
    "geom_type": "area"
   },
   "geometry": {
    "type": "Polygon",
    "coordinates": [
     [
      [
       13.42568561410455,
       52.58806396717081
      ],
      [
       13.42571562418689,
       52.5880260875362
      ],
      [
       13.4256714253751,
       52.58801524211993
      ],
      [
       13.42568675811664,
       52.58800050600567
      ],
      [
       13.42578426219155,
       52.58802636597557
      ],
      [
       13.42584908772727,
       52.58804796214434
      ],
      [
       13.42587662964072,
       52.58807363980878
      ],
      [
       13.42587821645628,
       52.58809413980163
      ],
      [
       13.42581503799,
       52.58819093043921
      ],
      [
       13.42577868627722,
       52.58822165559695
      ],
      [
       13.42571331816384,
       52.5882175089984
      ],
      [
       13.42562514647119,
       52.58820259948111
      ],
      [
       13.42557774187804,
       52.58818506889386
      ],
      [
       13.42556343711556,
       52.58815882142477
      ],
      [
       13.42560589657745,
       52.58811011182667
      ],
      [
       13.42564855396493,
       52.58812048181227
      ],
      [
       13.42565473254006,
       52.5881337987275
      ],
      [
       13.42568453376777,
       52.58814563193819
      ],
      [
       13.42572662256424,
       52.58815329029369
      ],
      [
       13.42576339045291,
       52.58815437589648
      ],
      [
       13.42581320090198,
       52.58814019664614
      ],
      [
       13.4258254759475,
       52.58811800826353
      ],
      [
       13.42581725037741,
       52.58809388584702
      ],
      [
       13.42578337999743,
       52.58807476125789
      ],
      [
       13.42574194332502,
       52.58806031955251
      ],
      [
       13.42568213477395,
       52.58807187816636
      ],
      [
       13.42564318932072,
       52.58806307319974
      ],
      [
       13.42568561410455,
       52.58806396717081
      ]
     ]
    ]
   }
  },
  {
   "type": "Feature",
   "properties": {
    "name": "NA - Bienenweide + Wilder Wein Q3/4",
    "projekt": "BEW",
    "standort": "SH",
    "geom_type": "area"
   },
   "geometry": {
    "type": "Polygon",
    "coordinates": [
     [
      [
       13.37334801379326,
       52.53290091433684
      ],
      [
       13.37355521064304,
       52.53268540903971
      ],
      [
       13.37399640548704,
       52.53284051838605
      ],
      [
       13.37380277020023,
       52.53306104820491
      ],
      [
       13.37334801379326,
       52.53290091433684
      ]
     ]
    ]
   }
  },
  {
   "type": "Feature",
   "properties": {
    "name": "SH - Kletterpflanzen",
    "projekt": "BEW",
    "standort": "SH",
    "geom_type": "path"
   },
   "geometry": {
    "type": "LineString",
    "coordinates": [
     [
      13.37375031609002,
      52.53304244604524
     ],
     [
      13.37341558603057,
      52.53292332017124
     ]
    ]
   }
  },
  {
   "type": "Feature",
   "properties": {
    "name": "SH",
    "projekt": "BEW",
    "standort": "SH",
    "geom_type": "point"
   },
   "geometry": {
    "type": "Point",
    "coordinates": [
     13.37388051901026,
     52.53243926686405
    ]
   }
  },
  {
   "type": "Feature",
   "properties": {
    "name": "Wilde Wiese",
    "projekt": "BEW",
    "standort": "SH",
    "geom_type": "area"
   },
   "geometry": {
    "type": "Polygon",
    "coordinates": [
     [
      [
       13.37443836918849,
       52.53233502461603
      ],
      [
       13.37446555144192,
       52.53234289713581
      ],
      [
       13.37442148002031,
       52.53240892123247
      ],
      [
       13.37436171410685,
       52.53251984020889
      ],
      [
       13.37430856787176,
       52.53262725485429
      ],
      [
       13.37427313146133,
       52.53271863007399
      ],
      [
       13.37421893794498,
       52.53276530043504
      ],
      [
       13.37418080721628,
       52.53277800749521
      ],
      [
       13.37404844905773,
       52.53272596974517
      ],
      [
       13.3742591723846,
       52.53250987371366
      ],
      [
       13.37443836918849,
       52.53233502461603
      ]
     ]
    ]
   }
  },
  {
   "type": "Feature",
   "properties": {
    "name": "Wilde Wiese",
    "projekt": "BEW",
    "standort": "SH",
    "geom_type": "area"
   },
   "geometry": {
    "type": "Polygon",
    "coordinates": [
     [
      [
       13.37393606883107,
       52.53299441566155
      ],
      [
       13.37397024733829,
       52.53300857040172
      ],
      [
       13.37389400398232,
       52.53308473195949
      ],
      [
       13.3738659899427,
       52.53306579414247
      ],
      [
       13.37393606883107,
       52.53299441566155
      ]
     ]
    ]
   }
  },
  {
   "type": "Feature",
   "properties": {
    "name": "Wilde Wiese",
    "projekt": "BEW",
    "standort": "SH",
    "geom_type": "area"
   },
   "geometry": {
    "type": "Polygon",
    "coordinates": [
     [
      [
       13.37405575416411,
       52.53286984119696
      ],
      [
       13.37406667554185,
       52.53286790389399
      ],
      [
       13.37410504328536,
       52.53287959138869
      ],
      [
       13.3741080458392,
       52.53289083186934
      ],
      [
       13.3740910990904,
       52.53290678530747
      ],
      [
       13.3740951340264,
       52.53291415429226
      ],
      [
       13.37417943416341,
       52.53294744751366
      ],
      [
       13.37414681940596,
       52.53295485671727
      ],
      [
       13.37413303964347,
       52.53298441341351
      ],
      [
       13.37412053700654,
       52.53302517838213
      ],
      [
       13.37396131902716,
       52.53296410438801
      ],
      [
       13.37405575416411,
       52.53286984119696
      ]
     ]
    ]
   }
  },
  {
   "type": "Feature",
   "properties": {
    "name": "Wilde Wiese",
    "projekt": "BEW",
    "standort": "SH",
    "geom_type": "area"
   },
   "geometry": {
    "type": "Polygon",
    "coordinates": [
     [
      [
       13.37306112565332,
       52.53251192022663
      ],
      [
       13.37306392187913,
       52.53250907205721
      ],
      [
       13.37323238813496,
       52.53256980620732
      ],
      [
       13.37316479917934,
       52.53263623954914
      ],
      [
       13.37317821269068,
       52.53259703580045
      ],
      [
       13.37317779380208,
       52.53257993449046
      ],
      [
       13.37315924526997,
       52.53255727157006
      ],
      [
       13.37311664890258,
       52.53253630986055
      ],
      [
       13.37306112565332,
       52.53251192022663
      ]
     ]
    ]
   }
  },
  {
   "type": "Feature",
   "properties": {
    "name": "Lehmquelle",
    "projekt": "BEW",
    "standort": "SH",
    "geom_type": "point"
   },
   "geometry": {
    "type": "Point",
    "coordinates": [
     13.374305019604,
     52.53253844754698
    ]
   }
  },
  {
   "type": "Feature",
   "properties": {
    "name": "Habitatk\u00e4sten",
    "projekt": "BEW",
    "standort": "SH",
    "geom_type": "point"
   },
   "geometry": {
    "type": "Point",
    "coordinates": [
     13.37432755772113,
     52.53288179353611
    ]
   }
  },
  {
   "type": "Feature",
   "properties": {
    "name": "Bentjeshecke",
    "projekt": "BEW",
    "standort": "SH",
    "geom_type": "path"
   },
   "geometry": {
    "type": "LineString",
    "coordinates": [
     [
      13.37427846356437,
      52.53290034395475
     ],
     [
      13.37440937938923,
      52.53264517033544
     ],
     [
      13.37452422240025,
      52.53242059020858
     ],
     [
      13.37458900044684,
      52.5323414501532
     ],
     [
      13.37470552037673,
      52.53222936863465
     ],
     [
      13.37485166725884,
      52.5321396196325
     ],
     [
      13.37500313990403,
      52.53206418610571
     ],
     [
      13.3754803151568,
      52.531878852795
     ],
     [
      13.37560278646541,
      52.53185061975957
     ]
    ]
   }
  },
  {
   "type": "Feature",
   "properties": {
    "name": "Stehendes Totholz",
    "projekt": "BEW",
    "standort": "SH",
    "geom_type": "point"
   },
   "geometry": {
    "type": "Point",
    "coordinates": [
     13.37431210261518,
     52.53287203303178
    ]
   }
  },
  {
   "type": "Feature",
   "properties": {
    "name": "SH - Gesamtfl\u00e4che",
    "projekt": "BEW",
    "standort": "SH",
    "geom_type": "area"
   },
   "geometry": {
    "type": "Polygon",
    "coordinates": [
     [
      [
       13.37321766397464,
       52.53235657615323
      ],
      [
       13.37341956151047,
       52.53216871658871
      ],
      [
       13.37351351912208,
       52.53218463570145
      ],
      [
       13.37371177076191,
       52.53197231060252
      ],
      [
       13.3736867890146,
       52.53195860972568
      ],
      [
       13.37404954626871,
       52.5315803205436
      ],
      [
       13.37473597531278,
       52.53179228655277
      ],
      [
       13.37493103403987,
       52.53186130795496
      ],
      [
       13.37520869269442,
       52.53186322511367
      ],
      [
       13.37541316401961,
       52.53194685826341
      ],
      [
       13.37507749588017,
       52.53205388561827
      ],
      [
       13.37483393782406,
       52.53220470293212
      ],
      [
       13.37471023489308,
       52.53230456955097
      ],
      [
       13.37460368285877,
       52.5324272515457
      ],
      [
       13.37445969770383,
       52.53270933328885
      ],
      [
       13.37438529145884,
       52.53292655122436
      ],
      [
       13.37423125994096,
       52.5332471422559
      ],
      [
       13.37300826922033,
       52.5327953451772
      ],
      [
       13.37315832363572,
       52.53265419516853
      ],
      [
       13.37317386694226,
       52.53261023214017
      ],
      [
       13.37316632549054,
       52.53256882953777
      ],
      [
       13.37311424791201,
       52.53253247191162
      ],
      [
       13.37304840027878,
       52.53250932069029
      ],
      [
       13.37321766397464,
       52.53235657615323
      ]
     ]
    ]
   }
  },
  {
   "type": "Feature",
   "properties": {
    "name": "SH - Einfahrt",
    "projekt": "BEW",
    "standort": "SH",
    "geom_type": "point"
   },
   "geometry": {
    "type": "Point",
    "coordinates": [
     13.3730836577294,
     52.5324710802585
    ]
   }
  },
  {
   "type": "Feature",
   "properties": {
    "name": "Einfahrtsweg",
    "projekt": "BEW",
    "standort": "SH",
    "geom_type": "path"
   },
   "geometry": {
    "type": "LineString",
    "coordinates": [
     [
      13.37282388117867,
      52.53240975668793
     ],
     [
      13.37303054430994,
      52.53244961665609
     ],
     [
      13.37328790213289,
      52.53254723960659
     ],
     [
      13.37412023822482,
      52.5328339305371
     ],
     [
      13.37424899455412,
      52.53286703578577
     ]
    ]
   }
  },
  {
   "type": "Feature",
   "properties": {
    "name": "Abladefl\u00e4che",
    "projekt": "BEW",
    "standort": "SH",
    "geom_type": "area"
   },
   "geometry": {
    "type": "Polygon",
    "coordinates": [
     [
      [
       13.37397043157829,
       52.53297087639127
      ],
      [
       13.37403153476976,
       52.53289677939191
      ],
      [
       13.37425888450604,
       52.53296861124569
      ],
      [
       13.37418441114136,
       52.5330430462322
      ],
      [
       13.37397043157829,
       52.53297087639127
      ]
     ]
    ]
   }
  },
  {
   "type": "Feature",
   "properties": {
    "name": "AG - Wilde Hecke",
    "projekt": "BEW",
    "standort": "AG",
    "geom_type": "area"
   },
   "geometry": {
    "type": "Polygon",
    "coordinates": [
     [
      [
       13.54032118408936,
       52.4090780680781
      ],
      [
       13.54041934267782,
       52.40920811650666
      ],
      [
       13.54040060127545,
       52.40921460279332
      ],
      [
       13.54029574931044,
       52.4090849270116
      ],
      [
       13.54032118408936,
       52.4090780680781
      ]
     ]
    ]
   }
  },
  {
   "type": "Feature",
   "properties": {
    "name": "AG",
    "projekt": "BEW",
    "standort": "AG",
    "geom_type": "point"
   },
   "geometry": {
    "type": "Point",
    "coordinates": [
     13.53966484333529,
     52.40911140042495
    ]
   }
  },
  {
   "type": "Feature",
   "properties": {
    "name": "AG - Gesamtfl\u00e4che",
    "projekt": "BEW",
    "standort": "AG",
    "geom_type": "area"
   },
   "geometry": {
    "type": "Polygon",
    "coordinates": [
     [
      [
       13.53881693476126,
       52.40898420791407
      ],
      [
       13.54001363258887,
       52.40869364483764
      ],
      [
       13.54011186055491,
       52.40879882095627
      ],
      [
       13.54018646979204,
       52.40889969185466
      ],
      [
       13.54011367210258,
       52.40893634891169
      ],
      [
       13.5401462081787,
       52.40896751669965
      ],
      [
       13.54025020646846,
       52.40896066138469
      ],
      [
       13.54034856025881,
       52.4090016787879
      ],
      [
       13.54076411501813,
       52.40968799301154
      ],
      [
       13.53938272271225,
       52.40995903323294
      ],
      [
       13.53881693476126,
       52.40898420791407
      ]
     ]
    ]
   }
  },
  {
   "type": "Feature",
   "properties": {
    "name": "Wilde Wiese 1",
    "projekt": "BEW",
    "standort": "AG",
    "geom_type": "area"
   },
   "geometry": {
    "type": "Polygon",
    "coordinates": [
     [
      [
       13.53924652366743,
       52.40960959692423
      ],
      [
       13.53939696428135,
       52.40957939456001
      ],
      [
       13.53943452708286,
       52.40964428542334
      ],
      [
       13.53935744507011,
       52.40970056179409
      ],
      [
       13.53939487809645,
       52.40977675963313
      ],
      [
       13.53932245610936,
       52.40978234947545
      ],
      [
       13.53924596588263,
       52.40968485982018
      ],
      [
       13.53925712590925,
       52.40963706914871
      ],
      [
       13.53924652366743,
       52.40960959692423
      ]
     ]
    ]
   }
  },
  {
   "type": "Feature",
   "properties": {
    "name": "Wilde Wiese 2",
    "projekt": "BEW",
    "standort": "AG",
    "geom_type": "area"
   },
   "geometry": {
    "type": "Polygon",
    "coordinates": [
     [
      [
       13.53941659088829,
       52.40983835240873
      ],
      [
       13.53944008811082,
       52.40986438405108
      ],
      [
       13.53954496421816,
       52.40984314546395
      ],
      [
       13.53961221895832,
       52.40987354083988
      ],
      [
       13.5396090782263,
       52.40990530663901
      ],
      [
       13.53941909658536,
       52.40991848940333
      ],
      [
       13.53937177302559,
       52.40989266884411
      ],
      [
       13.53935768745732,
       52.40985164071386
      ],
      [
       13.53941659088829,
       52.40983835240873
      ]
     ]
    ]
   }
  },
  {
   "type": "Feature",
   "properties": {
    "name": "Wilde Wiese 3",
    "projekt": "BEW",
    "standort": "AG",
    "geom_type": "area"
   },
   "geometry": {
    "type": "Polygon",
    "coordinates": [
     [
      [
       13.53914036523302,
       52.40865682090189
      ],
      [
       13.53922908362881,
       52.40882339635839
      ],
      [
       13.53883085808335,
       52.40890853880225
      ],
      [
       13.53872378647224,
       52.4087470274354
      ],
      [
       13.53914036523302,
       52.40865682090189
      ]
     ]
    ]
   }
  },
  {
   "type": "Feature",
   "properties": {
    "name": "Liegendes Totholz",
    "projekt": "BEW",
    "standort": "AG",
    "geom_type": "point"
   },
   "geometry": {
    "type": "Point",
    "coordinates": [
     13.53927813965186,
     52.40964524642296
    ]
   }
  },
  {
   "type": "Feature",
   "properties": {
    "name": "Liegendes Totholz (Abgrenzung)",
    "projekt": "BEW",
    "standort": "AG",
    "geom_type": "point"
   },
   "geometry": {
    "type": "Point",
    "coordinates": [
     13.53941162306222,
     52.40961167130337
    ]
   }
  },
  {
   "type": "Feature",
   "properties": {
    "name": "Pilzbioreaktoren",
    "projekt": "BEW",
    "standort": "AG",
    "geom_type": "point"
   },
   "geometry": {
    "type": "Point",
    "coordinates": [
     13.54044275694148,
     52.40945985577991
    ]
   }
  },
  {
   "type": "Feature",
   "properties": {
    "name": "Laubhaufen",
    "projekt": "BEW",
    "standort": "AG",
    "geom_type": "point"
   },
   "geometry": {
    "type": "Point",
    "coordinates": [
     13.5404289820759,
     52.4094327761645
    ]
   }
  },
  {
   "type": "Feature",
   "properties": {
    "name": "Habitatk\u00e4sten",
    "projekt": "BEW",
    "standort": "AG",
    "geom_type": "point"
   },
   "geometry": {
    "type": "Point",
    "coordinates": [
     13.53989371747162,
     52.40888848353354
    ]
   }
  },
  {
   "type": "Feature",
   "properties": {
    "name": "Bentjeshecke",
    "projekt": "BEW",
    "standort": "AG",
    "geom_type": "path"
   },
   "geometry": {
    "type": "LineString",
    "coordinates": [
     [
      13.53927029341344,
      52.40961509185059
     ],
     [
      13.53929981789838,
      52.40965849416519
     ],
     [
      13.53928642554881,
      52.40969202075041
     ],
     [
      13.5393042056959,
      52.40973953495443
     ],
     [
      13.53940017116397,
      52.40988389384059
     ],
     [
      13.53945342823828,
      52.4099063646528
     ],
     [
      13.53951854028692,
      52.4098937261173
     ],
     [
      13.53959614389871,
      52.40987834473433
     ]
    ]
   }
  },
  {
   "type": "Feature",
   "properties": {
    "name": "Stehendes Totholz",
    "projekt": "BEW",
    "standort": "AG",
    "geom_type": "area"
   },
   "geometry": {
    "type": "Polygon",
    "coordinates": [
     [
      [
       13.54034470770651,
       52.40966592721644
      ],
      [
       13.54036828588434,
       52.40967811634053
      ],
      [
       13.5403543812476,
       52.40969336962726
      ],
      [
       13.54033112576384,
       52.40968130615716
      ],
      [
       13.54034470770651,
       52.40966592721644
      ]
     ]
    ]
   }
  },
  {
   "type": "Feature",
   "properties": {
    "name": "Hummelkasten",
    "projekt": "BEW",
    "standort": "AG",
    "geom_type": "point"
   },
   "geometry": {
    "type": "Point",
    "coordinates": [
     13.54040183288348,
     52.40950276844728
    ]
   }
  },
  {
   "type": "Feature",
   "properties": {
    "name": "Stehendes Totholz",
    "projekt": "BEW",
    "standort": "AG",
    "geom_type": "area"
   },
   "geometry": {
    "type": "Polygon",
    "coordinates": [
     [
      [
       13.54028547182483,
       52.40964092260293
      ],
      [
       13.54030529543073,
       52.40965065273313
      ],
      [
       13.54029083530599,
       52.4096651195585
      ],
      [
       13.54026877733334,
       52.40965459100637
      ],
      [
       13.54028547182483,
       52.40964092260293
      ]
     ]
    ]
   }
  },
  {
   "type": "Feature",
   "properties": {
    "name": "AG - Stehendes Totholz",
    "projekt": "BEW",
    "standort": "AG",
    "geom_type": "point"
   },
   "geometry": {
    "type": "Point",
    "coordinates": [
     13.54029254077794,
     52.4096519376966
    ]
   }
  },
  {
   "type": "Feature",
   "properties": {
    "name": "AG - Stehendes Totholz",
    "projekt": "BEW",
    "standort": "AG",
    "geom_type": "point"
   },
   "geometry": {
    "type": "Point",
    "coordinates": [
     13.54035133100318,
     52.40967926398022
    ]
   }
  },
  {
   "type": "Feature",
   "properties": {
    "name": "AG - Einfahrt",
    "projekt": "BEW",
    "standort": "AG",
    "geom_type": "point"
   },
   "geometry": {
    "type": "Point",
    "coordinates": [
     13.54013485782708,
     52.40894420424806
    ]
   }
  },
  {
   "type": "Feature",
   "properties": {
    "name": "Wilde Wiese (Bienen)",
    "projekt": "BEW",
    "standort": "AG",
    "geom_type": "point"
   },
   "geometry": {
    "type": "Point",
    "coordinates": [
     13.53935325752732,
     52.40964447796603
    ]
   }
  },
  {
   "type": "Feature",
   "properties": {
    "name": "E-Ladestelle",
    "projekt": "BEW",
    "standort": "AG",
    "geom_type": "area"
   },
   "geometry": {
    "type": "Polygon",
    "coordinates": [
     [
      [
       13.53943735961353,
       52.40986409934455
      ],
      [
       13.53955102306722,
       52.40984227560444
      ],
      [
       13.5396305035231,
       52.40988532140098
      ],
      [
       13.53946765037385,
       52.40991703508743
      ],
      [
       13.53943735961353,
       52.40986409934455
      ]
     ]
    ]
   }
  },
  {
   "type": "Feature",
   "properties": {
    "name": "Anfahrt",
    "projekt": "BEW",
    "standort": "AG",
    "geom_type": "path"
   },
   "geometry": {
    "type": "LineString",
    "coordinates": [
     [
      13.54042721215872,
      52.40905495868755
     ],
     [
      13.54031627788538,
      52.40892602778172
     ],
     [
      13.53998004165827,
      52.40897437360012
     ],
     [
      13.53973925202015,
      52.40904162139771
     ],
     [
      13.53993732318144,
      52.40941300225247
     ],
     [
      13.54018927989307,
      52.40941948604252
     ],
     [
      13.54028165209486,
      52.40959014627376
     ],
     [
      13.54001596905088,
      52.40964740769547
     ],
     [
      13.53988544719138,
      52.40981273596868
     ],
     [
      13.53961505467782,
      52.4098588638061
     ],
     [
      13.53955464748285,
      52.40980900605206
     ],
     [
      13.53950501865782,
      52.40971362956213
     ],
     [
      13.53942481096869,
      52.40957078045059
     ]
    ]
   }
  },
  {
   "type": "Feature",
   "properties": {
    "name": "LE - Gesamtfl\u00e4che",
    "projekt": "BEW",
    "standort": "LE",
    "geom_type": "area"
   },
   "geometry": {
    "type": "Polygon",
    "coordinates": [
     [
      [
       13.31889083464363,
       52.5970933727
      ],
      [
       13.3192154547846,
       52.59652216283136
      ],
      [
       13.32039749502429,
       52.59670089740286
      ],
      [
       13.32084315736832,
       52.59740739899052
      ],
      [
       13.31889083464363,
       52.5970933727
      ]
     ]
    ]
   }
  },
  {
   "type": "Feature",
   "properties": {
    "name": "LE",
    "projekt": "BEW",
    "standort": "LE",
    "geom_type": "point"
   },
   "geometry": {
    "type": "Point",
    "coordinates": [
     13.31965966104034,
     52.59698753714991
    ]
   }
  },
  {
   "type": "Feature",
   "properties": {
    "name": "LE - Bentjeshecke",
    "projekt": "BEW",
    "standort": "LE",
    "geom_type": "path"
   },
   "geometry": {
    "type": "LineString",
    "coordinates": [
     [
      13.32044998273337,
      52.59697491434161
     ],
     [
      13.32045140478784,
      52.59685766367013
     ],
     [
      13.32040312772559,
      52.59678435302226
     ]
    ]
   }
  },
  {
   "type": "Feature",
   "properties": {
    "name": "LE - Wilde Wiese",
    "projekt": "BEW",
    "standort": "LE",
    "geom_type": "area"
   },
   "geometry": {
    "type": "Polygon",
    "coordinates": [
     [
      [
       13.31997639167088,
       52.59677588972871
      ],
      [
       13.31996870303737,
       52.59674652257734
      ],
      [
       13.31993512313201,
       52.59671063959775
      ],
      [
       13.31986242651755,
       52.59669070504029
      ],
      [
       13.31988821558455,
       52.59662478239811
      ],
      [
       13.32027096221454,
       52.59668356438642
      ],
      [
       13.32040007996657,
       52.5967001065477
      ],
      [
       13.3204411215261,
       52.59677140416819
      ],
      [
       13.32031121662868,
       52.59680234879659
      ],
      [
       13.32028748351421,
       52.59677425768425
      ],
      [
       13.32023968774522,
       52.59675106813161
      ],
      [
       13.3201747882602,
       52.59673945224105
      ],
      [
       13.32009970787747,
       52.59675809177422
      ],
      [
       13.32005836166649,
       52.59678630045152
      ],
      [
       13.31997639167088,
       52.59677588972871
      ]
     ]
    ]
   }
  },
  {
   "type": "Feature",
   "properties": {
    "name": "LE - Liegendes Totholz",
    "projekt": "BEW",
    "standort": "LE",
    "geom_type": "point"
   },
   "geometry": {
    "type": "Point",
    "coordinates": [
     13.32048302513254,
     52.59692188995369
    ]
   }
  },
  {
   "type": "Feature",
   "properties": {
    "name": "LE",
    "projekt": "BEW",
    "standort": "LE",
    "geom_type": "point"
   },
   "geometry": {
    "type": "Point",
    "coordinates": [
     13.3201850398127,
     52.59730268127171
    ]
   }
  },
  {
   "type": "Feature",
   "properties": {
    "name": "Anfahrt",
    "projekt": "BEW",
    "standort": "LE",
    "geom_type": "path"
   },
   "geometry": {
    "type": "LineString",
    "coordinates": [
     [
      13.32039189353929,
      52.59740516266129
     ],
     [
      13.32017928014334,
      52.59736455330674
     ],
     [
      13.32021906000755,
      52.59723252091089
     ],
     [
      13.32029281374886,
      52.59705287990376
     ],
     [
      13.32041183276712,
      52.59694263846929
     ]
    ]
   }
  },
  {
   "type": "Feature",
   "properties": {
    "name": "1",
    "projekt": "BEW",
    "standort": "LE",
    "geom_type": "area"
   },
   "geometry": {
    "type": "Polygon",
    "coordinates": [
     [
      [
       13.32034394219436,
       52.59673432101409
      ],
      [
       13.31998688292782,
       52.59667630837775
      ],
      [
       13.32000085869896,
       52.59664922625034
      ],
      [
       13.32035378356817,
       52.59670900093442
      ],
      [
       13.32034394219436,
       52.59673432101409
      ]
     ]
    ]
   }
  },
  {
   "type": "Feature",
   "properties": {
    "name": "3",
    "projekt": "BEW",
    "standort": "LE",
    "geom_type": "area"
   },
   "geometry": {
    "type": "Polygon",
    "coordinates": [
     [
      [
       13.31965734910028,
       52.59662094452714
      ],
      [
       13.31927902321388,
       52.59656471648337
      ],
      [
       13.31928770182617,
       52.5965346447371
      ],
      [
       13.31967282716031,
       52.59658746847235
      ],
      [
       13.31965734910028,
       52.59662094452714
      ]
     ]
    ]
   }
  },
  {
   "type": "Feature",
   "properties": {
    "name": "2",
    "projekt": "BEW",
    "standort": "LE",
    "geom_type": "area"
   },
   "geometry": {
    "type": "Polygon",
    "coordinates": [
     [
      [
       13.31998547198718,
       52.59667516116499
      ],
      [
       13.31966267840779,
       52.59662235612371
      ],
      [
       13.31967139259906,
       52.59659347859192
      ],
      [
       13.32000192655433,
       52.59664640791362
      ],
      [
       13.31998547198718,
       52.59667516116499
      ]
     ]
    ]
   }
  },
  {
   "type": "Feature",
   "properties": {
    "name": "Trassensanierung N26",
    "projekt": "BEW",
    "standort": "BEW - Trassensanierung",
    "geom_type": "point"
   },
   "geometry": {
    "type": "Point",
    "coordinates": [
     13.51815775582627,
     52.52281868844953
    ]
   }
  },
  {
   "type": "Feature",
   "properties": {
    "name": "Lagerort",
    "projekt": "BEW",
    "standort": "BEW - Trassensanierung",
    "geom_type": "point"
   },
   "geometry": {
    "type": "Point",
    "coordinates": [
     13.51810341264364,
     52.52297149356217
    ]
   }
  },
  {
   "type": "Feature",
   "properties": {
    "name": "Anfahrt Trasse N26",
    "projekt": "BEW",
    "standort": "BEW - Trassensanierung",
    "geom_type": "path"
   },
   "geometry": {
    "type": "LineString",
    "coordinates": [
     [
      13.5195155287829,
      52.52308067618608
     ],
     [
      13.51943618576344,
      52.52297773699458
     ],
     [
      13.5192788812078,
      52.52291245353675
     ],
     [
      13.51921264332157,
      52.52284308555053
     ],
     [
      13.51921504928999,
      52.52268553487313
     ],
     [
      13.51921758958673,
      52.52253890712171
     ],
     [
      13.51909815573626,
      52.52251776162824
     ],
     [
      13.51889161123214,
      52.52253775521336
     ],
     [
      13.51862845922411,
      52.52264606036647
     ],
     [
      13.51851751406463,
      52.52271067485501
     ],
     [
      13.51840434092795,
      52.52274272335086
     ],
     [
      13.51827008080501,
      52.52281793891254
     ],
     [
      13.51818827689586,
      52.5229027649887
     ],
     [
      13.51810854053459,
      52.52295497211417
     ]
    ]
   }
  },
  {
   "type": "Feature",
   "properties": {
    "name": "MRZ",
    "projekt": "BEW",
    "standort": "BEW - HKW Marzahn",
    "geom_type": "point"
   },
   "geometry": {
    "type": "Point",
    "coordinates": [
     13.5234298,
     52.5252091
    ]
   }
  },
  {
   "type": "Feature",
   "properties": {
    "name": "Referenzfl\u00e4che",
    "projekt": "BEW",
    "standort": "BEW - HKW Marzahn",
    "geom_type": "area"
   },
   "geometry": {
    "type": "Polygon",
    "coordinates": [
     [
      [
       13.52274329205968,
       52.52280020914787
      ],
      [
       13.52312912862022,
       52.52279382936723
      ],
      [
       13.52312896025941,
       52.52295089252614
      ],
      [
       13.52305526186403,
       52.5229489218877
      ],
      [
       13.52304884109141,
       52.5229841150333
      ],
      [
       13.52273808086376,
       52.52298368378371
      ],
      [
       13.52274329205968,
       52.52280020914787
      ]
     ]
    ]
   }
  },
  {
   "type": "Feature",
   "properties": {
    "name": "Fl\u00e4che 1",
    "projekt": "BEW",
    "standort": "BEW - HKW Marzahn",
    "geom_type": "area"
   },
   "geometry": {
    "type": "Polygon",
    "coordinates": [
     [
      [
       13.52251567959218,
       52.52304568016616
      ],
      [
       13.52251442686132,
       52.52309109254919
      ],
      [
       13.52207082983943,
       52.52309742111192
      ],
      [
       13.52207606649358,
       52.52304379330156
      ],
      [
       13.52251567959218,
       52.52304568016616
      ]
     ]
    ]
   }
  },
  {
   "type": "Feature",
   "properties": {
    "name": "HKW Wilmersdorf",
    "projekt": "BEW",
    "standort": "BEW - HKW Wilmersdorf",
    "geom_type": "point"
   },
   "geometry": {
    "type": "Point",
    "coordinates": [
     13.30717858313027,
     52.47983216937708
    ]
   }
  },
  {
   "type": "Feature",
   "properties": {
    "name": "Wildstauden",
    "projekt": "BEW",
    "standort": "BEW - HKW Wilmersdorf",
    "geom_type": "area"
   },
   "geometry": {
    "type": "Polygon",
    "coordinates": [
     [
      [
       13.30709028502147,
       52.47981405965989
      ],
      [
       13.3071899519943,
       52.47980070644053
      ],
      [
       13.30721280708662,
       52.47985162919225
      ],
      [
       13.30722083547737,
       52.47987701604411
      ],
      [
       13.30715645251811,
       52.47988530465404
      ],
      [
       13.3071396636097,
       52.4798830386915
      ],
      [
       13.3071222977931,
       52.47986448543197
      ],
      [
       13.30708575143628,
       52.47985749814312
      ],
      [
       13.30709028502147,
       52.47981405965989
      ]
     ]
    ]
   }
  },
  {
   "type": "Feature",
   "properties": {
    "name": "Gesamtfl\u00e4che",
    "projekt": "BEW",
    "standort": "BEW - HKW Wilmersdorf",
    "geom_type": "area"
   },
   "geometry": {
    "type": "Polygon",
    "coordinates": [
     [
      [
       13.30701873687038,
       52.47981858671653
      ],
      [
       13.30722194917233,
       52.47979121975399
      ],
      [
       13.30727147086166,
       52.47992570445602
      ],
      [
       13.30716560236922,
       52.47992358024429
      ],
      [
       13.30711637289735,
       52.47991436961529
      ],
      [
       13.30702812591566,
       52.47989900806617
      ],
      [
       13.30701873687038,
       52.47981858671653
      ]
     ]
    ]
   }
  },
  {
   "type": "Feature",
   "properties": {
    "name": "Untitled path",
    "projekt": "BEW",
    "standort": "BEW - HKW Wilmersdorf",
    "geom_type": "path"
   },
   "geometry": {
    "type": "LineString",
    "coordinates": [
     [
      13.30701236883974,
      52.47981224403571
     ],
     [
      13.30702603474615,
      52.47989876448871
     ],
     [
      13.30713752486358,
      52.47991810410172
     ],
     [
      13.30716599686928,
      52.4799240853838
     ],
     [
      13.30727107870901,
      52.47992571049343
     ]
    ]
   }
  },
  {
   "type": "Feature",
   "properties": {
    "name": "Untitled polygon",
    "projekt": "BEW",
    "standort": "BEW - HKW Wilmersdorf",
    "geom_type": "area"
   },
   "geometry": {
    "type": "Polygon",
    "coordinates": [
     [
      [
       13.30708771463384,
       52.4798619751795
      ],
      [
       13.30711745520645,
       52.47986721623256
      ],
      [
       13.30714112643734,
       52.47990010079423
      ],
      [
       13.30708756432408,
       52.47989042852846
      ],
      [
       13.30708771463384,
       52.4798619751795
      ]
     ]
    ]
   }
  },
  {
   "type": "Feature",
   "properties": {
    "name": "Untitled path",
    "projekt": "BEW",
    "standort": "BEW - HKW Wilmersdorf",
    "geom_type": "path"
   },
   "geometry": {
    "type": "LineString",
    "coordinates": [
     [
      13.30703986247761,
      52.47987968482903
     ],
     [
      13.30704224496319,
      52.47989459572637
     ],
     [
      13.30712996786614,
      52.47991260361728
     ]
    ]
   }
  },
  {
   "type": "Feature",
   "properties": {
    "name": "1_Bioretention & Wildstauden",
    "projekt": "BEW",
    "standort": "BEW - HKW Mitte",
    "geom_type": "point"
   },
   "geometry": {
    "type": "Point",
    "coordinates": [
     13.42033426306767,
     52.51024977331868
    ]
   }
  },
  {
   "type": "Feature",
   "properties": {
    "name": "Wildstauden + Bioretention",
    "projekt": "BEW",
    "standort": "BEW - HKW Mitte",
    "geom_type": "area"
   },
   "geometry": {
    "type": "Polygon",
    "coordinates": [
     [
      [
       13.42019403750871,
       52.51016100596391
      ],
      [
       13.42032593445094,
       52.51012863353805
      ],
      [
       13.42041673823527,
       52.51027694234176
      ],
      [
       13.42041877914761,
       52.51029244615874
      ],
      [
       13.42041535882085,
       52.51031649577437
      ],
      [
       13.42040488893447,
       52.51033789197267
      ],
      [
       13.42038287141124,
       52.5103562548156
      ],
      [
       13.42033110414901,
       52.51037677983093
      ],
      [
       13.42019403750871,
       52.51016100596391
      ]
     ]
    ]
   }
  },
  {
   "type": "Feature",
   "properties": {
    "name": "Retentionsgraben",
    "projekt": "BEW",
    "standort": "BEW - HKW Mitte",
    "geom_type": "path"
   },
   "geometry": {
    "type": "LineString",
    "coordinates": [
     [
      13.42033356443318,
      52.51036926325187
     ],
     [
      13.42035799153381,
      52.51035747132818
     ],
     [
      13.42038868232985,
      52.5103423877372
     ],
     [
      13.42040159402882,
      52.51032177319532
     ],
     [
      13.42040957688038,
      52.51029675503347
     ],
     [
      13.42040754979318,
      52.51027134144341
     ],
     [
      13.42032050364561,
      52.51013375841342
     ],
     [
      13.42020654443756,
      52.51016278276813
     ]
    ]
   }
  },
  {
   "type": "Feature",
   "properties": {
    "name": "Untitled polygon",
    "projekt": "BEW",
    "standort": "BEW - HKW Mitte",
    "geom_type": "area"
   },
   "geometry": {
    "type": "Polygon",
    "coordinates": [
     [
      [
       13.42025241289425,
       52.51022840928641
      ],
      [
       13.42023302418601,
       52.51018752683203
      ],
      [
       13.42021079509599,
       52.51016892472324
      ],
      [
       13.4203163469096,
       52.51014069872213
      ],
      [
       13.42039918237416,
       52.51027032504056
      ],
      [
       13.42039874026985,
       52.51028533179939
      ],
      [
       13.42029821399245,
       52.51029969416361
      ],
      [
       13.42025241289425,
       52.51022840928641
      ]
     ]
    ]
   }
  },
  {
   "type": "Feature",
   "properties": {
    "name": "Staketenzaun",
    "projekt": "BEW",
    "standort": "BEW - HKW Mitte",
    "geom_type": "path"
   },
   "geometry": {
    "type": "LineString",
    "coordinates": [
     [
      13.42033206247818,
      52.51037653989476
     ],
     [
      13.42038237655479,
      52.51035668470311
     ],
     [
      13.42040565895497,
      52.51033729636816
     ],
     [
      13.42041589657017,
      52.51031363155895
     ],
     [
      13.42041808286701,
      52.51028715752065
     ],
     [
      13.42041314711365,
      52.51026919447532
     ],
     [
      13.42032478252586,
      52.51012882484468
     ],
     [
      13.42019297334451,
      52.51016143344782
     ]
    ]
   }
  },
  {
   "type": "Feature",
   "properties": {
    "name": "Untitled polygon",
    "projekt": "BEW",
    "standort": "BEW - HKW Mitte",
    "geom_type": "area"
   },
   "geometry": {
    "type": "Polygon",
    "coordinates": [
     [
      [
       13.42025255690698,
       52.51023141416821
      ],
      [
       13.42035579284711,
       52.51020485091932
      ],
      [
       13.42039732087159,
       52.51027243385849
      ],
      [
       13.42034769954364,
       52.51028252955338
      ],
      [
       13.42029282188365,
       52.51029396295785
      ],
      [
       13.42025255690698,
       52.51023141416821
      ]
     ]
    ]
   }
  },
  {
   "type": "Feature",
   "properties": {
    "name": "P15 - Gesamtfl\u00e4che",
    "projekt": "JOPE",
    "standort": "P15",
    "geom_type": "area"
   },
   "geometry": {
    "type": "Polygon",
    "coordinates": [
     [
      [
       13.34226477647992,
       52.53342203017255
      ],
      [
       13.34213522622,
       52.53342666577735
      ],
      [
       13.34216986114898,
       52.53321212372492
      ],
      [
       13.34240340804021,
       52.53321449613453
      ],
      [
       13.34241065192636,
       52.53314614478312
      ],
      [
       13.34283362243194,
       52.53315382130779
      ],
      [
       13.34284216180765,
       52.53341752309483
      ],
      [
       13.34272075042116,
       52.53341386210985
      ],
      [
       13.34272336062008,
       52.53346906534132
      ],
      [
       13.34226715889408,
       52.5334741165499
      ],
      [
       13.34226477647992,
       52.53342203017255
      ]
     ]
    ]
   }
  },
  {
   "type": "Feature",
   "properties": {
    "name": "P15",
    "projekt": "JOPE",
    "standort": "P15",
    "geom_type": "point"
   },
   "geometry": {
    "type": "Point",
    "coordinates": [
     13.34257473392685,
     52.5333157255918
    ]
   }
  },
  {
   "type": "Feature",
   "properties": {
    "name": "Sickingenstra\u00dfe 3",
    "projekt": "JOPE",
    "standort": "S3",
    "geom_type": "point"
   },
   "geometry": {
    "type": "Point",
    "coordinates": [
     13.3271699,
     52.5329064
    ]
   }
  },
  {
   "type": "Feature",
   "properties": {
    "name": "S3_1",
    "projekt": "JOPE",
    "standort": "S3",
    "geom_type": "area"
   },
   "geometry": {
    "type": "Polygon",
    "coordinates": [
     [
      [
       13.32700113165737,
       52.53293357543635
      ],
      [
       13.32748920636022,
       52.53303437956943
      ],
      [
       13.327390252236,
       52.5333634434964
      ],
      [
       13.32682882522642,
       52.53327204864193
      ],
      [
       13.32685753965634,
       52.53318631812066
      ],
      [
       13.32731797832475,
       52.53326584143097
      ],
      [
       13.32739409724458,
       52.53311469032545
      ],
      [
       13.32694829099868,
       52.53303575028477
      ],
      [
       13.32700113165737,
       52.53293357543635
      ]
     ]
    ]
   }
  },
  {
   "type": "Feature",
   "properties": {
    "name": "S3_2",
    "projekt": "JOPE",
    "standort": "S3",
    "geom_type": "area"
   },
   "geometry": {
    "type": "Polygon",
    "coordinates": [
     [
      [
       13.32677429732952,
       52.53338542414285
      ],
      [
       13.32727419502986,
       52.53345051795117
      ],
      [
       13.32723277914945,
       52.53349609289896
      ],
      [
       13.32674557962681,
       52.53343596326864
      ],
      [
       13.32677429732952,
       52.53338542414285
      ]
     ]
    ]
   }
  },
  {
   "type": "Feature",
   "properties": {
    "name": "Fl\u00e4che 1",
    "projekt": "JOPE",
    "standort": "S3",
    "geom_type": "area"
   },
   "geometry": {
    "type": "Polygon",
    "coordinates": [
     [
      [
       13.32708038880779,
       52.53305704932882
      ],
      [
       13.32701743984305,
       52.53303726921231
      ],
      [
       13.32699701289561,
       52.53301546044036
      ],
      [
       13.32700284935091,
       52.53299390528998
      ],
      [
       13.32702827903463,
       52.53299213020167
      ],
      [
       13.32715667812745,
       52.53301191038953
      ],
      [
       13.3272554786902,
       52.53303118324428
      ],
      [
       13.32725921527762,
       52.53305070552867
      ],
      [
       13.32723298618894,
       52.53306225505915
      ],
      [
       13.32721587578005,
       52.53307594062582
      ],
      [
       13.3271706855373,
       52.53307374578596
      ],
      [
       13.32708038880779,
       52.53305704932882
      ]
     ]
    ]
   }
  },
  {
   "type": "Feature",
   "properties": {
    "name": "Fl\u00e4che 2",
    "projekt": "JOPE",
    "standort": "S3",
    "geom_type": "area"
   },
   "geometry": {
    "type": "Polygon",
    "coordinates": [
     [
      [
       13.32724182890484,
       52.53307715855104
      ],
      [
       13.32727020165319,
       52.53306306862637
      ],
      [
       13.32727885752677,
       52.53304703868753
      ],
      [
       13.32729175963059,
       52.53304371296704
      ],
      [
       13.32732849565398,
       52.53304667222321
      ],
      [
       13.32739126403493,
       52.53305617891616
      ],
      [
       13.32742959380573,
       52.53306933088994
      ],
      [
       13.32743039806497,
       52.53308265388367
      ],
      [
       13.3274221697714,
       52.53309650512063
      ],
      [
       13.32741521613973,
       52.53311223880111
      ],
      [
       13.32739873207204,
       52.53311620249359
      ],
      [
       13.32737230855974,
       52.53311669594296
      ],
      [
       13.32733946642441,
       52.53311158794659
      ],
      [
       13.32732897650613,
       52.53310375467664
      ],
      [
       13.32729838565196,
       52.53309045385804
      ],
      [
       13.32726074546947,
       52.53308283037012
      ],
      [
       13.32724182890484,
       52.53307715855104
      ]
     ]
    ]
   }
  },
  {
   "type": "Feature",
   "properties": {
    "name": "Fl\u00e4che 3",
    "projekt": "JOPE",
    "standort": "S3",
    "geom_type": "area"
   },
   "geometry": {
    "type": "Polygon",
    "coordinates": [
     [
      [
       13.32726179218479,
       52.53325640336335
      ],
      [
       13.32729574532495,
       52.53325986792047
      ],
      [
       13.32729295562865,
       52.53327168565549
      ],
      [
       13.32727561281976,
       52.53328179876383
      ],
      [
       13.32722587731707,
       52.5332790647751
      ],
      [
       13.3271634264839,
       52.53327320967909
      ],
      [
       13.3270973210955,
       52.5332660668519
      ],
      [
       13.32702720048134,
       52.53325896148455
      ],
      [
       13.32697748880429,
       52.53325389886853
      ],
      [
       13.32695995183409,
       52.53324638159119
      ],
      [
       13.3269056654779,
       52.5332333284521
      ],
      [
       13.32688903161987,
       52.53322391307859
      ],
      [
       13.32691032326788,
       52.53320403389309
      ],
      [
       13.32693395303888,
       52.53319801322672
      ],
      [
       13.32726179218479,
       52.53325640336335
      ]
     ]
    ]
   }
  },
  {
   "type": "Feature",
   "properties": {
    "name": "Fl\u00e4che 4",
    "projekt": "JOPE",
    "standort": "S3",
    "geom_type": "area"
   },
   "geometry": {
    "type": "Polygon",
    "coordinates": [
     [
      [
       13.32721323487346,
       52.53330548334144
      ],
      [
       13.32720656462788,
       52.53332288185906
      ],
      [
       13.32717999269395,
       52.53331850456877
      ],
      [
       13.32709186594117,
       52.53330395410735
      ],
      [
       13.32707698858442,
       52.53330855067151
      ],
      [
       13.32706721620346,
       52.53331713540001
      ],
      [
       13.32701782694923,
       52.53330816802649
      ],
      [
       13.32697490250825,
       52.53330239983645
      ],
      [
       13.32695371782259,
       52.53329819586612
      ],
      [
       13.32697567306145,
       52.53328548213761
      ],
      [
       13.32702188345918,
       52.53329015434649
      ],
      [
       13.32708227826074,
       52.53329404365643
      ],
      [
       13.32709163029623,
       52.53328716183997
      ],
      [
       13.32713496634925,
       52.53328946617665
      ],
      [
       13.32721323487346,
       52.53330548334144
      ]
     ]
    ]
   }
  },
  {
   "type": "Feature",
   "properties": {
    "name": "Fl\u00e4che 5",
    "projekt": "JOPE",
    "standort": "S3",
    "geom_type": "area"
   },
   "geometry": {
    "type": "Polygon",
    "coordinates": [
     [
      [
       13.32692886644491,
       52.53329138673526
      ],
      [
       13.32689660420843,
       52.53329038294934
      ],
      [
       13.32685146031545,
       52.53328280932666
      ],
      [
       13.32683918962762,
       52.53328203940304
      ],
      [
       13.32684753292,
       52.5332555590596
      ],
      [
       13.32686842917426,
       52.53325031322633
      ],
      [
       13.32688854764895,
       52.5332659446638
      ],
      [
       13.32691660628231,
       52.53327533909997
      ],
      [
       13.32693981710175,
       52.53327898091173
      ],
      [
       13.32692886644491,
       52.53329138673526
      ]
     ]
    ]
   }
  },
  {
   "type": "Feature",
   "properties": {
    "name": "Fl\u00e4che 6",
    "projekt": "JOPE",
    "standort": "S3",
    "geom_type": "area"
   },
   "geometry": {
    "type": "Polygon",
    "coordinates": [
     [
      [
       13.32723631437471,
       52.53331423780556
      ],
      [
       13.32726044382033,
       52.53330675925933
      ],
      [
       13.32729175374094,
       52.53330758687887
      ],
      [
       13.32732400323406,
       52.53331306696738
      ],
      [
       13.32735552688939,
       52.53331188307737
      ],
      [
       13.32732765636324,
       52.53334621235206
      ],
      [
       13.32729792200111,
       52.53334276246088
      ],
      [
       13.3272325110903,
       52.53333373842282
      ],
      [
       13.32722588562434,
       52.53332518192659
      ],
      [
       13.32723631437471,
       52.53331423780556
      ]
     ]
    ]
   }
  },
  {
   "type": "Feature",
   "properties": {
    "name": "Fl\u00e4che 7",
    "projekt": "JOPE",
    "standort": "S3",
    "geom_type": "area"
   },
   "geometry": {
    "type": "Polygon",
    "coordinates": [
     [
      [
       13.32722632693027,
       52.53346009564674
      ],
      [
       13.32719714270218,
       52.53349840736024
      ],
      [
       13.32675323852934,
       52.5334376704707
      ],
      [
       13.3267778149469,
       52.53339842795786
      ],
      [
       13.32722632693027,
       52.53346009564674
      ]
     ]
    ]
   }
  },
  {
   "type": "Feature",
   "properties": {
    "name": "H14",
    "projekt": "JOPE",
    "standort": "H14",
    "geom_type": "point"
   },
   "geometry": {
    "type": "Point",
    "coordinates": [
     13.4243331,
     52.48429399999999
    ]
   }
  },
  {
   "type": "Feature",
   "properties": {
    "name": "H14 - Gesamtfl\u00e4che",
    "projekt": "JOPE",
    "standort": "H14",
    "geom_type": "area"
   },
   "geometry": {
    "type": "Polygon",
    "coordinates": [
     [
      [
       13.42377214602335,
       52.48427943438491
      ],
      [
       13.42392729879474,
       52.48428808026063
      ],
      [
       13.42394677032025,
       52.48420425005953
      ],
      [
       13.42385869028005,
       52.48419701462938
      ],
      [
       13.42386034215311,
       52.48416770585854
      ],
      [
       13.42421199757797,
       52.48418801316642
      ],
      [
       13.42416082381338,
       52.48431946551288
      ],
      [
       13.423769201202,
       52.48430584471719
      ],
      [
       13.42377214602335,
       52.48427943438491
      ]
     ]
    ]
   }
  },
  {
   "type": "Feature",
   "properties": {
    "name": "X13",
    "projekt": "JOPE",
    "standort": "X13",
    "geom_type": "point"
   },
   "geometry": {
    "type": "Point",
    "coordinates": [
     13.3831013,
     52.4901413
    ]
   }
  },
  {
   "type": "Feature",
   "properties": {
    "name": "X13",
    "projekt": "JOPE",
    "standort": "X13",
    "geom_type": "area"
   },
   "geometry": {
    "type": "Polygon",
    "coordinates": [
     [
      [
       13.38323263299661,
       52.49027948219792
      ],
      [
       13.38324554205126,
       52.49043504145909
      ],
      [
       13.38307534848909,
       52.49045431187596
      ],
      [
       13.38303462452521,
       52.49030686336653
      ],
      [
       13.38323263299661,
       52.49027948219792
      ]
     ]
    ]
   }
  },
  {
   "type": "Feature",
   "properties": {
    "name": "R95",
    "projekt": "JOPE",
    "standort": "R95",
    "geom_type": "point"
   },
   "geometry": {
    "type": "Point",
    "coordinates": [
     13.37222749623462,
     52.57277374868307
    ]
   }
  },
  {
   "type": "Feature",
   "properties": {
    "name": "R95 - Gesamtfl\u00e4che",
    "projekt": "JOPE",
    "standort": "R95",
    "geom_type": "area"
   },
   "geometry": {
    "type": "Polygon",
    "coordinates": [
     [
      [
       13.37219415432451,
       52.57239965098083
      ],
      [
       13.3728414358662,
       52.57295338842671
      ],
      [
       13.37231706462173,
       52.57314769490902
      ],
      [
       13.3716814663166,
       52.572607394008
      ],
      [
       13.37219415432451,
       52.57239965098083
      ]
     ]
    ]
   }
  },
  {
   "type": "Feature",
   "properties": {
    "name": "Framstra\u00dfe 7",
    "projekt": "JOPE",
    "standort": "F7",
    "geom_type": "point"
   },
   "geometry": {
    "type": "Point",
    "coordinates": [
     13.43166,
     52.48953
    ]
   }
  },
  {
   "type": "Feature",
   "properties": {
    "name": "PP",
    "projekt": "STADT BERLIN - PREU\u00dfENPARK",
    "standort": "STADT BERLIN - PREU\u00dfENPARK",
    "geom_type": "point"
   },
   "geometry": {
    "type": "Point",
    "coordinates": [
     13.3130543,
     52.49275830000001
    ]
   }
  },
  {
   "type": "Feature",
   "properties": {
    "name": "M1",
    "projekt": "STADT BERLIN - PREU\u00dfENPARK",
    "standort": "STADT BERLIN - PREU\u00dfENPARK",
    "geom_type": "area"
   },
   "geometry": {
    "type": "Polygon",
    "coordinates": [
     [
      [
       13.31198785988551,
       52.49355118060401
      ],
      [
       13.31166528490116,
       52.49349988324838
      ],
      [
       13.31177302877087,
       52.49340104012713
      ],
      [
       13.31195696652905,
       52.49334853646226
      ],
      [
       13.3120774159361,
       52.49340361649055
      ],
      [
       13.31198785988551,
       52.49355118060401
      ]
     ]
    ]
   }
  },
  {
   "type": "Feature",
   "properties": {
    "name": "UW Britz",
    "projekt": "Stromnetz Berlin",
    "standort": "UW Britz",
    "geom_type": "point"
   },
   "geometry": {
    "type": "Point",
    "coordinates": [
     13.43437850047814,
     52.44101804164033
    ]
   }
  },
  {
   "type": "Feature",
   "properties": {
    "name": "D1",
    "projekt": "Stromnetz Berlin",
    "standort": "Dachfl\u00e4chen",
    "geom_type": "area"
   },
   "geometry": {
    "type": "Polygon",
    "coordinates": [
     [
      [
       13.43402289473087,
       52.44093450825186
      ],
      [
       13.43403358754177,
       52.44084045825642
      ],
      [
       13.43404985160708,
       52.44059457950343
      ],
      [
       13.43421070257381,
       52.44059949720519
      ],
      [
       13.43423369841336,
       52.44060009563046
      ],
      [
       13.43421402271675,
       52.44060162588738
      ],
      [
       13.43418117914661,
       52.44093910834487
      ],
      [
       13.43402289473087,
       52.44093450825186
      ]
     ]
    ]
   }
  },
  {
   "type": "Feature",
   "properties": {
    "name": "D2",
    "projekt": "Stromnetz Berlin",
    "standort": "Dachfl\u00e4chen",
    "geom_type": "area"
   },
   "geometry": {
    "type": "Polygon",
    "coordinates": [
     [
      [
       13.43394226492134,
       52.44084596323437
      ],
      [
       13.43402219346199,
       52.44084824412992
      ],
      [
       13.43401765319253,
       52.44091148651466
      ],
      [
       13.43393700626905,
       52.44090789727663
      ],
      [
       13.43394226492134,
       52.44084596323437
      ]
     ]
    ]
   }
  },
  {
   "type": "Feature",
   "properties": {
    "name": "D3",
    "projekt": "Stromnetz Berlin",
    "standort": "Dachfl\u00e4chen",
    "geom_type": "area"
   },
   "geometry": {
    "type": "Polygon",
    "coordinates": [
     [
      [
       13.43385361736966,
       52.44083644200055
      ],
      [
       13.43393475120467,
       52.44084123355309
      ],
      [
       13.43392628857709,
       52.44090787271054
      ],
      [
       13.43384760787054,
       52.44090654075822
      ],
      [
       13.43385361736966,
       52.44083644200055
      ]
     ]
    ]
   }
  },
  {
   "type": "Feature",
   "properties": {
    "name": "D4",
    "projekt": "Stromnetz Berlin",
    "standort": "Dachfl\u00e4chen",
    "geom_type": "area"
   },
   "geometry": {
    "type": "Polygon",
    "coordinates": [
     [
      [
       13.43421886742482,
       52.4406149032264
      ],
      [
       13.43432454918812,
       52.44061682912263
      ],
      [
       13.43429561177576,
       52.44093158299953
      ],
      [
       13.434188832126,
       52.44093055517479
      ],
      [
       13.43421886742482,
       52.4406149032264
      ]
     ]
    ]
   }
  },
  {
   "type": "Feature",
   "properties": {
    "name": "D5",
    "projekt": "Stromnetz Berlin",
    "standort": "Dachfl\u00e4chen",
    "geom_type": "area"
   },
   "geometry": {
    "type": "Polygon",
    "coordinates": [
     [
      [
       13.43358047096267,
       52.44051493997939
      ],
      [
       13.43372718140782,
       52.44055869099254
      ],
      [
       13.43373879875401,
       52.44054604280461
      ],
      [
       13.43381798815566,
       52.44057193637962
      ],
      [
       13.43380924460368,
       52.44058264261898
      ],
      [
       13.43386796093536,
       52.44059981184825
      ],
      [
       13.43383118890907,
       52.44064124160086
      ],
      [
       13.43354564631146,
       52.44055595274244
      ],
      [
       13.43358047096267,
       52.44051493997939
      ]
     ]
    ]
   }
  },
  {
   "type": "Feature",
   "properties": {
    "name": "D6",
    "projekt": "Stromnetz Berlin",
    "standort": "Dachfl\u00e4chen",
    "geom_type": "area"
   },
   "geometry": {
    "type": "Polygon",
    "coordinates": [
     [
      [
       13.43386760338617,
       52.44065874709113
      ],
      [
       13.4337946084135,
       52.44075050704654
      ],
      [
       13.4334700462703,
       52.44065199857144
      ],
      [
       13.43354002089647,
       52.44056098219527
      ],
      [
       13.43386760338617,
       52.44065874709113
      ]
     ]
    ]
   }
  },
  {
   "type": "Feature",
   "properties": {
    "name": "D7",
    "projekt": "Stromnetz Berlin",
    "standort": "Dachfl\u00e4chen",
    "geom_type": "area"
   },
   "geometry": {
    "type": "Polygon",
    "coordinates": [
     [
      [
       13.43375763599913,
       52.44075559334838
      ],
      [
       13.43373036011496,
       52.44078705244553
      ],
      [
       13.43347066617774,
       52.44070768967713
      ],
      [
       13.43349699741523,
       52.44067446871443
      ],
      [
       13.43375763599913,
       52.44075559334838
      ]
     ]
    ]
   }
  },
  {
   "type": "Feature",
   "properties": {
    "name": "D8",
    "projekt": "Stromnetz Berlin",
    "standort": "Dachfl\u00e4chen",
    "geom_type": "area"
   },
   "geometry": {
    "type": "Polygon",
    "coordinates": [
     [
      [
       13.43371639358904,
       52.44078557593828
      ],
      [
       13.43368468510578,
       52.44082278610924
      ],
      [
       13.43344089478759,
       52.44074837348252
      ],
      [
       13.43346939283657,
       52.44071012923231
      ],
      [
       13.43371639358904,
       52.44078557593828
      ]
     ]
    ]
   }
  },
  {
   "type": "Feature",
   "properties": {
    "name": "A1",
    "projekt": "Stromnetz Berlin",
    "standort": "Au\u00dfenfl\u00e4chen",
    "geom_type": "area"
   },
   "geometry": {
    "type": "Polygon",
    "coordinates": [
     [
      [
       13.43441711439189,
       52.4408472056738
      ],
      [
       13.43445294224773,
       52.44047488758387
      ],
      [
       13.43452040709716,
       52.4404751942606
      ],
      [
       13.43450488519801,
       52.44064060440026
      ],
      [
       13.43446230351937,
       52.44104866005363
      ],
      [
       13.43440280048906,
       52.44103077544672
      ],
      [
       13.43441711439189,
       52.4408472056738
      ]
     ]
    ]
   }
  },
  {
   "type": "Feature",
   "properties": {
    "name": "A1_1",
    "projekt": "Stromnetz Berlin",
    "standort": "Au\u00dfenfl\u00e4chen",
    "geom_type": "area"
   },
   "geometry": {
    "type": "Polygon",
    "coordinates": [
     [
      [
       13.43439918556125,
       52.44099859036982
      ],
      [
       13.43440995188278,
       52.44090321127641
      ],
      [
       13.43448313494201,
       52.44090492518229
      ],
      [
       13.43446823796636,
       52.44103194981939
      ],
      [
       13.43442463586783,
       52.44103189117123
      ],
      [
       13.43439918556125,
       52.44099859036982
      ]
     ]
    ]
   }
  },
  {
   "type": "Feature",
   "properties": {
    "name": "A1_2",
    "projekt": "Stromnetz Berlin",
    "standort": "Au\u00dfenfl\u00e4chen",
    "geom_type": "area"
   },
   "geometry": {
    "type": "Polygon",
    "coordinates": [
     [
      [
       13.43442539304917,
       52.44075372477465
      ],
      [
       13.43449620977271,
       52.44075597150362
      ],
      [
       13.43448290436681,
       52.4409046259419
      ],
      [
       13.4344097519078,
       52.44090326783849
      ],
      [
       13.43442539304917,
       52.44075372477465
      ]
     ]
    ]
   }
  },
  {
   "type": "Feature",
   "properties": {
    "name": "A1_3",
    "projekt": "Stromnetz Berlin",
    "standort": "Au\u00dfenfl\u00e4chen",
    "geom_type": "area"
   },
   "geometry": {
    "type": "Polygon",
    "coordinates": [
     [
      [
       13.43442408400811,
       52.44075413976032
      ],
      [
       13.43443724732495,
       52.44058034209397
      ],
      [
       13.43451253919582,
       52.44058274935073
      ],
      [
       13.43449621708472,
       52.44075606556385
      ],
      [
       13.43442408400811,
       52.44075413976032
      ]
     ]
    ]
   }
  },
  {
   "type": "Feature",
   "properties": {
    "name": "A1_4",
    "projekt": "Stromnetz Berlin",
    "standort": "Au\u00dfenfl\u00e4chen",
    "geom_type": "area"
   },
   "geometry": {
    "type": "Polygon",
    "coordinates": [
     [
      [
       13.43443736877262,
       52.440580587149
      ],
      [
       13.43444364321656,
       52.44053255936502
      ],
      [
       13.43451615965496,
       52.44053336525158
      ],
      [
       13.43451139456499,
       52.44058316572459
      ],
      [
       13.43443736877262,
       52.440580587149
      ]
     ]
    ]
   }
  },
  {
   "type": "Feature",
   "properties": {
    "name": "A2",
    "projekt": "Stromnetz Berlin",
    "standort": "Au\u00dfenfl\u00e4chen",
    "geom_type": "area"
   },
   "geometry": {
    "type": "Polygon",
    "coordinates": [
     [
      [
       13.43428339849949,
       52.44094725396265
      ],
      [
       13.43428897224587,
       52.4409423544464
      ],
      [
       13.43429885330256,
       52.44094225593678
      ],
      [
       13.43431649912964,
       52.44094279039191
      ],
      [
       13.4343395339975,
       52.44094217840889
      ],
      [
       13.43434779988573,
       52.44097248639253
      ],
      [
       13.43432708946971,
       52.44100486552583
      ],
      [
       13.43429925585889,
       52.4410161337905
      ],
      [
       13.43427088503938,
       52.4410178399669
      ],
      [
       13.43427836995539,
       52.44099810275869
      ],
      [
       13.43428281662406,
       52.44097966010654
      ],
      [
       13.4342852646471,
       52.44096049031679
      ],
      [
       13.43428339849949,
       52.44094725396265
      ]
     ]
    ]
   }
  },
  {
   "type": "Feature",
   "properties": {
    "name": "A3",
    "projekt": "Stromnetz Berlin",
    "standort": "Au\u00dfenfl\u00e4chen",
    "geom_type": "area"
   },
   "geometry": {
    "type": "Polygon",
    "coordinates": [
     [
      [
       13.43395076963288,
       52.4405089199477
      ],
      [
       13.43390971628198,
       52.44048860916838
      ],
      [
       13.43382504018972,
       52.44048385967535
      ],
      [
       13.43380552588067,
       52.44047507302492
      ],
      [
       13.43445082641448,
       52.44047540300217
      ],
      [
       13.43444874932836,
       52.44050053395026
      ],
      [
       13.43436189874561,
       52.4404982245793
      ],
      [
       13.43435312935388,
       52.44053894209506
      ],
      [
       13.43398617635141,
       52.440534042832
      ],
      [
       13.43395076963288,
       52.4405089199477
      ]
     ]
    ]
   }
  },
  {
   "type": "Feature",
   "properties": {
    "name": "A4",
    "projekt": "Stromnetz Berlin",
    "standort": "Au\u00dfenfl\u00e4chen",
    "geom_type": "area"
   },
   "geometry": {
    "type": "Polygon",
    "coordinates": [
     [
      [
       13.43331193573879,
       52.4404823622395
      ],
      [
       13.43339180749224,
       52.44048472572353
      ],
      [
       13.43317127012987,
       52.44074450137576
      ],
      [
       13.43314420975263,
       52.44073490853403
      ],
      [
       13.43331193573879,
       52.4404823622395
      ]
     ]
    ]
   }
  },
  {
   "type": "Feature",
   "properties": {
    "name": "A5",
    "projekt": "Stromnetz Berlin",
    "standort": "Au\u00dfenfl\u00e4chen",
    "geom_type": "area"
   },
   "geometry": {
    "type": "Polygon",
    "coordinates": [
     [
      [
       13.43313799764291,
       52.44073734365013
      ],
      [
       13.43255310093114,
       52.44054943021903
      ],
      [
       13.43285470193547,
       52.44015905031492
      ],
      [
       13.4333750563657,
       52.44031592884011
      ],
      [
       13.43341214648637,
       52.44033025455239
      ],
      [
       13.4333095106753,
       52.44048183642848
      ],
      [
       13.43313799764291,
       52.44073734365013
      ]
     ]
    ]
   }
  },
  {
   "type": "Feature",
   "properties": {
    "name": "A4_1",
    "projekt": "Stromnetz Berlin",
    "standort": "Au\u00dfenfl\u00e4chen",
    "geom_type": "area"
   },
   "geometry": {
    "type": "Polygon",
    "coordinates": [
     [
      [
       13.43371744546671,
       52.44047532095806
      ],
      [
       13.43368908009478,
       52.44051238011898
      ],
      [
       13.43357695840311,
       52.44047902374795
      ],
      [
       13.43371744546671,
       52.44047532095806
      ]
     ]
    ]
   }
  },
  {
   "type": "Feature",
   "properties": {
    "name": "A4_2",
    "projekt": "Stromnetz Berlin",
    "standort": "Au\u00dfenfl\u00e4chen",
    "geom_type": "area"
   },
   "geometry": {
    "type": "Polygon",
    "coordinates": [
     [
      [
       13.43323052821651,
       52.44067262143252
      ],
      [
       13.43324034569666,
       52.44068193921337
      ],
      [
       13.43328852085156,
       52.44069414487342
      ],
      [
       13.43323865335117,
       52.44076371799163
      ],
      [
       13.43314707876748,
       52.44073762572497
      ],
      [
       13.43330324363496,
       52.44049805067503
      ],
      [
       13.4333116362706,
       52.44048383905724
      ],
      [
       13.43357786075798,
       52.44047960663458
      ],
      [
       13.43351219448684,
       52.44055880743296
      ],
      [
       13.43336222075446,
       52.44051425900935
      ],
      [
       13.43323052821651,
       52.44067262143252
      ]
     ]
    ]
   }
  },
  {
   "type": "Feature",
   "properties": {
    "name": "A6",
    "projekt": "Stromnetz Berlin",
    "standort": "Au\u00dfenfl\u00e4chen",
    "geom_type": "area"
   },
   "geometry": {
    "type": "Polygon",
    "coordinates": [
     [
      [
       13.43445550647943,
       52.44112977125186
      ],
      [
       13.43445359309035,
       52.44114158862261
      ],
      [
       13.43323957251906,
       52.44076495421307
      ],
      [
       13.43324561613338,
       52.44075656090214
      ],
      [
       13.43445550647943,
       52.44112977125186
      ]
     ]
    ]
   }
  },
  {
   "type": "Feature",
   "properties": {
    "name": "A7",
    "projekt": "Stromnetz Berlin",
    "standort": "Au\u00dfenfl\u00e4chen",
    "geom_type": "area"
   },
   "geometry": {
    "type": "Polygon",
    "coordinates": [
     [
      [
       13.43432954152043,
       52.44060311751298
      ],
      [
       13.43436641145963,
       52.44060501507177
      ],
      [
       13.43433795589087,
       52.44093162651075
      ],
      [
       13.4343004217185,
       52.44092909981027
      ],
      [
       13.43432954152043,
       52.44060311751298
      ]
     ]
    ]
   }
  },
  {
   "type": "Feature",
   "properties": {
    "name": "A3_Str\u00e4ucher entfernung",
    "projekt": "Stromnetz Berlin",
    "standort": "Au\u00dfenfl\u00e4chen",
    "geom_type": "area"
   },
   "geometry": {
    "type": "Polygon",
    "coordinates": [
     [
      [
       13.43436478823276,
       52.44047466703768
      ],
      [
       13.43451135317706,
       52.44047577811928
      ],
      [
       13.43451257269309,
       52.44049185338912
      ],
      [
       13.43450843785378,
       52.44050246396093
      ],
      [
       13.43441157885869,
       52.44050389291981
      ],
      [
       13.43410971321865,
       52.44049176472634
      ],
      [
       13.43406370838684,
       52.44048825259689
      ],
      [
       13.43404626160179,
       52.44048102204766
      ],
      [
       13.43405511550512,
       52.44047372920495
      ],
      [
       13.43436478823276,
       52.44047466703768
      ]
     ]
    ]
   }
  },
  {
   "type": "Feature",
   "properties": {
    "name": "A3_grasnarbe entfernen",
    "projekt": "Stromnetz Berlin",
    "standort": "Au\u00dfenfl\u00e4chen",
    "geom_type": "area"
   },
   "geometry": {
    "type": "Polygon",
    "coordinates": [
     [
      [
       13.43405057507295,
       52.44047442255585
      ],
      [
       13.43404505049633,
       52.44048082556425
      ],
      [
       13.43406649620896,
       52.44048814145071
      ],
      [
       13.43419917717253,
       52.44049689254683
      ],
      [
       13.43419071331716,
       52.44050340196372
      ],
      [
       13.43415385763425,
       52.44050403697344
      ],
      [
       13.43413676683524,
       52.44051122981136
      ],
      [
       13.43409953567047,
       52.44049779092601
      ],
      [
       13.43404412190151,
       52.4405075846219
      ],
      [
       13.43400811229851,
       52.44049450478995
      ],
      [
       13.4339691941794,
       52.44049805972288
      ],
      [
       13.43393449581101,
       52.4405013972631
      ],
      [
       13.433901335092,
       52.44048982906391
      ],
      [
       13.43390160315065,
       52.44047632786025
      ],
      [
       13.43405057507295,
       52.44047442255585
      ]
     ]
    ]
   }
  },
  {
   "type": "Feature",
   "properties": {
    "name": "A3_Staudenfl\u00e4che 1",
    "projekt": "Stromnetz Berlin",
    "standort": "Au\u00dfenfl\u00e4chen",
    "geom_type": "area"
   },
   "geometry": {
    "type": "Polygon",
    "coordinates": [
     [
      [
       13.43437781667562,
       52.44052761538138
      ],
      [
       13.43438692399772,
       52.4405060475782
      ],
      [
       13.43437604236487,
       52.44048626347936
      ],
      [
       13.43452090599795,
       52.4404851572986
      ],
      [
       13.43451880333217,
       52.44050628559712
      ],
      [
       13.43444530980415,
       52.44050664523097
      ],
      [
       13.43444237458049,
       52.4405497453424
      ],
      [
       13.43437248993517,
       52.44054710073986
      ],
      [
       13.43437781667562,
       52.44052761538138
      ]
     ]
    ]
   }
  },
  {
   "type": "Feature",
   "properties": {
    "name": "A3_Staudenfl\u00e4che 2",
    "projekt": "Stromnetz Berlin",
    "standort": "Au\u00dfenfl\u00e4chen",
    "geom_type": "area"
   },
   "geometry": {
    "type": "Polygon",
    "coordinates": [
     [
      [
       13.43390135112875,
       52.4404905909237
      ],
      [
       13.43390109923844,
       52.44048256445734
      ],
      [
       13.43419237233606,
       52.44048326459239
      ],
      [
       13.43419812497039,
       52.44049544760851
      ],
      [
       13.43418060892775,
       52.44050625452047
      ],
      [
       13.43414045069298,
       52.44050841307238
      ],
      [
       13.43412598548382,
       52.4405113969456
      ],
      [
       13.43410743151808,
       52.44050193147071
      ],
      [
       13.43407029904255,
       52.44049832609689
      ],
      [
       13.4340492757686,
       52.44050818920817
      ],
      [
       13.43402915369915,
       52.44050227697164
      ],
      [
       13.43399370430415,
       52.4404947302103
      ],
      [
       13.43396111940366,
       52.4405067698757
      ],
      [
       13.43395390923513,
       52.44051351023623
      ],
      [
       13.43390135112875,
       52.4404905909237
      ]
     ]
    ]
   }
  },
  {
   "type": "Feature",
   "properties": {
    "name": "A3_Grasnarbe entfernen",
    "projekt": "Stromnetz Berlin",
    "standort": "Au\u00dfenfl\u00e4chen",
    "geom_type": "area"
   },
   "geometry": {
    "type": "Polygon",
    "coordinates": [
     [
      [
       13.4343787709036,
       52.44047426213957
      ],
      [
       13.43451851323291,
       52.44047367534758
      ],
      [
       13.43451943163752,
       52.44050641039132
      ],
      [
       13.43438672254361,
       52.44050672412916
      ],
      [
       13.43437670831872,
       52.44048771554262
      ],
      [
       13.4343787709036,
       52.44047426213957
      ]
     ]
    ]
   }
  },
  {
   "type": "Feature",
   "properties": {
    "name": "A4 Geh\u00f6lze",
    "projekt": "Stromnetz Berlin",
    "standort": "Au\u00dfenfl\u00e4chen",
    "geom_type": "area"
   },
   "geometry": {
    "type": "Polygon",
    "coordinates": [
     [
      [
       13.43331066593887,
       52.44048166007568
      ],
      [
       13.43332316088806,
       52.44047829215344
      ],
      [
       13.43334981695983,
       52.44047682462986
      ],
      [
       13.43316841435,
       52.44074410878515
      ],
      [
       13.43314745065614,
       52.44073837930491
      ],
      [
       13.43331066593887,
       52.44048166007568
      ]
     ]
    ]
   }
  },
  {
   "type": "Feature",
   "properties": {
    "name": "A3_Geh\u00f6lze",
    "projekt": "Stromnetz Berlin",
    "standort": "Au\u00dfenfl\u00e4chen",
    "geom_type": "area"
   },
   "geometry": {
    "type": "Polygon",
    "coordinates": [
     [
      [
       13.43451920392294,
       52.44047381716946
      ],
      [
       13.43451903197979,
       52.44048474845582
      ],
      [
       13.43390043045227,
       52.4404826129768
      ],
      [
       13.43389890761719,
       52.44047259720297
      ],
      [
       13.43451920392294,
       52.44047381716946
      ]
     ]
    ]
   }
  },
  {
   "type": "Feature",
   "properties": {
    "name": "W2 Hinteres Haus",
    "projekt": "Stromnetz Berlin",
    "standort": "Wandfl\u00e4chen",
    "geom_type": "area"
   },
   "geometry": {
    "type": "Polygon",
    "coordinates": [
     [
      [
       13.43349424366089,
       52.44066227021359
      ],
      [
       13.43345494153666,
       52.4406477253186
      ],
      [
       13.4335838312729,
       52.44049683344021
      ],
      [
       13.43372263351522,
       52.44053627746321
      ],
      [
       13.43372922253671,
       52.44052652311952
      ],
      [
       13.43383356571353,
       52.44055865034223
      ],
      [
       13.43382988811384,
       52.44057022687868
      ],
      [
       13.43388036953075,
       52.44058423742246
      ],
      [
       13.43384290645529,
       52.44063436836903
      ],
      [
       13.43387546939937,
       52.44064297146124
      ],
      [
       13.43379179729612,
       52.44075515786625
      ],
      [
       13.43376398009464,
       52.44074389807513
      ],
      [
       13.43373251749443,
       52.4407888199989
      ],
      [
       13.43372426700884,
       52.44078604262869
      ],
      [
       13.43369176657544,
       52.44082486247488
      ],
      [
       13.43343346937754,
       52.44074709586995
      ],
      [
       13.43349424366089,
       52.44066227021359
      ]
     ]
    ]
   }
  },
  {
   "type": "Feature",
   "properties": {
    "name": "W1 Vorderes Haus",
    "projekt": "Stromnetz Berlin",
    "standort": "Wandfl\u00e4chen",
    "geom_type": "area"
   },
   "geometry": {
    "type": "Polygon",
    "coordinates": [
     [
      [
       13.43385161583353,
       52.44082369092606
      ],
      [
       13.43403083425253,
       52.44083908125486
      ],
      [
       13.43404853713401,
       52.44058013209669
      ],
      [
       13.43424307083372,
       52.44059061134186
      ],
      [
       13.43423558199054,
       52.44060684542094
      ],
      [
       13.43433076634443,
       52.44060719865175
      ],
      [
       13.43429922940813,
       52.44093091921095
      ],
      [
       13.43422470055025,
       52.44093560959054
      ],
      [
       13.43421682251684,
       52.44094163708397
      ],
      [
       13.43401955058291,
       52.4409361449274
      ],
      [
       13.43402086124337,
       52.44091525077451
      ],
      [
       13.43384116800982,
       52.44090565953245
      ],
      [
       13.43385161583353,
       52.44082369092606
      ]
     ]
    ]
   }
  },
  {
   "type": "Feature",
   "properties": {
    "name": "VS1",
    "projekt": "Stromnetz Berlin",
    "standort": "Versiegelte Fl\u00e4chen",
    "geom_type": "area"
   },
   "geometry": {
    "type": "Polygon",
    "coordinates": [
     [
      [
       13.4343599577353,
       52.4404985562755
      ],
      [
       13.43444706170621,
       52.44050174107466
      ],
      [
       13.43444226859075,
       52.44054008153238
      ],
      [
       13.43435549720615,
       52.44053927299589
      ],
      [
       13.4343599577353,
       52.4404985562755
      ]
     ]
    ]
   }
  },
  {
   "type": "Feature",
   "properties": {
    "name": "VS2",
    "projekt": "Stromnetz Berlin",
    "standort": "Versiegelte Fl\u00e4chen",
    "geom_type": "area"
   },
   "geometry": {
    "type": "Polygon",
    "coordinates": [
     [
      [
       13.43371905570905,
       52.44047541652116
      ],
      [
       13.43380194137092,
       52.44047540361328
      ],
      [
       13.43382438986431,
       52.44048438817072
      ],
      [
       13.43391073478784,
       52.44049005334512
      ],
      [
       13.43395140518421,
       52.44051217668757
      ],
      [
       13.43398435848697,
       52.4405349197546
      ],
      [
       13.43387166315115,
       52.44053453007352
      ],
      [
       13.43370765679751,
       52.4404890952849
      ],
      [
       13.43371905570905,
       52.44047541652116
      ]
     ]
    ]
   }
  },
  {
   "type": "Feature",
   "properties": {
    "name": "VS3",
    "projekt": "Stromnetz Berlin",
    "standort": "Versiegelte Fl\u00e4chen",
    "geom_type": "area"
   },
   "geometry": {
    "type": "Polygon",
    "coordinates": [
     [
      [
       13.4343516365263,
       52.4409713689756
      ],
      [
       13.43434140927705,
       52.44093550480817
      ],
      [
       13.43437121958117,
       52.44056170348973
      ],
      [
       13.43444091014711,
       52.44056202936429
      ],
      [
       13.43439651488111,
       52.4410320549724
      ],
      [
       13.43430036395143,
       52.44102094018378
      ],
      [
       13.43432935033191,
       52.44100688213861
      ],
      [
       13.4343516365263,
       52.4409713689756
      ]
     ]
    ]
   }
  },
  {
   "type": "Feature",
   "properties": {
    "name": "LUMA Homebase",
    "projekt": "LUMA - Homebase",
    "standort": "LUMA - Homebase",
    "geom_type": "point"
   },
   "geometry": {
    "type": "Point",
    "coordinates": [
     13.81757772888574,
     52.82986170333571
    ]
   }
  }
 ]
}